[{"OBJECT_NAME":"STARLINK-30805","OBJECT_ID":"2023-170J","EPOCH":"2025-10-08T09:54:11.250144","MEAN_MOTION":15.02492045,"ECCENTRICITY":0.00016003,"INCLINATION":43.0044,"RA_OF_ASC_NODE":303.3013,"ARG_OF_PERICENTER":279.9381,"MEAN_ANOMALY":80.1281,"EPHEMERIS_TYPE":0,"CLASSIFICATION_TYPE":"U","NORAD_CAT_ID":58214,"ELEMENT_SET_NO":999,"REV_AT_EPOCH":10737,"BSTAR":-0.00040532199,"MEAN_MOTION_DOT":-5.668e-5,"MEAN_MOTION_DDOT":0},{"OBJECT_NAME":"STARLINK-30851","OBJECT_ID":"2023-170K","EPOCH":"2025-10-08T13:00:46.588896","MEAN_MOTION":15.02546464,"ECCENTRICITY":0.0001296,"INCLINATION":43.0036,"RA_OF_ASC_NODE":302.5533,"ARG_OF_PERICENTER":276.5573,"MEAN_ANOMALY":83.5122,"EPHEMERIS_TYPE":0,"CLASSIFICATION_TYPE":"U","NORAD_CAT_ID":58215,"ELEMENT_SET_NO":999,"REV_AT_EPOCH":10739,"BSTAR":0.00017361,"MEAN_MOTION_DOT":2.143e-5,"MEAN_MOTION_DDOT":0},{"OBJECT_NAME":"STARLINK-30818","OBJECT_ID":"2023-170M","EPOCH":"2025-10-09T01:37:01.052256","MEAN_MOTION":15.02540432,"ECCENTRICITY":0.00012507,"INCLINATION":43.004,"RA_OF_ASC_NODE":299.6138,"ARG_OF_PERICENTER":264.9097,"MEAN_ANOMALY":95.1602,"EPHEMERIS_TYPE":0,"CLASSIFICATION_TYPE":"U","NORAD_CAT_ID":58217,"ELEMENT_SET_NO":999,"REV_AT_EPOCH":10747,"BSTAR":8.8303923e-5,"MEAN_MOTION_DOT":9.9e-6,"MEAN_MOTION_DDOT":0},{"OBJECT_NAME":"STARLINK-30794","OBJECT_ID":"2023-170N","EPOCH":"2025-10-08T13:19:57.676224","MEAN_MOTION":15.02538005,"ECCENTRICITY":0.000132,"INCLINATION":43.0046,"RA_OF_ASC_NODE":302.6347,"ARG_OF_PERICENTER":274.2957,"MEAN_ANOMALY":85.7735,"EPHEMERIS_TYPE":0,"CLASSIFICATION_TYPE":"U","NORAD_CAT_ID":58218,"ELEMENT_SET_NO":999,"REV_AT_EPOCH":10739,"BSTAR":4.1195e-5,"MEAN_MOTION_DOT":3.53e-6,"MEAN_MOTION_DDOT":0},{"OBJECT_NAME":"STARLINK-30835","OBJECT_ID":"2023-170P","EPOCH":"2025-10-09T07:50:20.878656","MEAN_MOTION":15.02535914,"ECCENTRICITY":0.00011488,"INCLINATION":43.0028,"RA_OF_ASC_NODE":298.1173,"ARG_OF_PERICENTER":273.428,"MEAN_ANOMALY":86.6431,"EPHEMERIS_TYPE":0,"CLASSIFICATION_TYPE":"U","NORAD_CAT_ID":58219,"ELEMENT_SET_NO":999,"REV_AT_EPOCH":10751,"BSTAR":-2.2397313e-5,"MEAN_MOTION_DOT":-5.06e-6,"MEAN_MOTION_DDOT":0},{"OBJECT_NAME":"STARLINK-30792","OBJECT_ID":"2023-170Q","EPOCH":"2025-10-09T07:45:34.187040","MEAN_MOTION":15.02514966,"ECCENTRICITY":0.00015615,"INCLINATION":43.0065,"RA_OF_ASC_NODE":298.0937,"ARG_OF_PERICENTER":280.8454,"MEAN_ANOMALY":79.2212,"EPHEMERIS_TYPE":0,"CLASSIFICATION_TYPE":"U","NORAD_CAT_ID":58220,"ELEMENT_SET_NO":999,"REV_AT_EPOCH":10751,"BSTAR":1.9188052e-5,"MEAN_MOTION_DOT":5.5e-7,"MEAN_MOTION_DDOT":0},{"OBJECT_NAME":"STARLINK-30836","OBJECT_ID":"2023-170R","EPOCH":"2025-10-09T01:17:50.621568","MEAN_MOTION":15.02538436,"ECCENTRICITY":9.352e-5,"INCLINATION":43.0033,"RA_OF_ASC_NODE":299.5134,"ARG_OF_PERICENTER":277.9018,"MEAN_ANOMALY":82.1719,"EPHEMERIS_TYPE":0,"CLASSIFICATION_TYPE":"U","NORAD_CAT_ID":58221,"ELEMENT_SET_NO":999,"REV_AT_EPOCH":10747,"BSTAR":-4.0689973e-5,"MEAN_MOTION_DOT":-7.53e-6,"MEAN_MOTION_DDOT":0},{"OBJECT_NAME":"STARLINK-30855","OBJECT_ID":"2023-170S","EPOCH":"2025-10-09T02:34:33.255840","MEAN_MOTION":15.02536114,"ECCENTRICITY":0.00014468,"INCLINATION":43.0038,"RA_OF_ASC_NODE":299.8924,"ARG_OF_PERICENTER":275.2856,"MEAN_ANOMALY":84.7822,"EPHEMERIS_TYPE":0,"CLASSIFICATION_TYPE":"U","NORAD_CAT_ID":58222,"ELEMENT_SET_NO":999,"REV_AT_EPOCH":10747,"BSTAR":5.1601787e-5,"MEAN_MOTION_DOT":4.93e-6,"MEAN_MOTION_DDOT":0},{"OBJECT_NAME":"STARLINK-30840","OBJECT_ID":"2023-170T","EPOCH":"2025-10-08T08:56:44.932128","MEAN_MOTION":15.02539995,"ECCENTRICITY":0.00011959,"INCLINATION":43.0036,"RA_OF_ASC_NODE":303.8419,"ARG_OF_PERICENTER":274.7069,"MEAN_ANOMALY":85.3637,"EPHEMERIS_TYPE":0,"CLASSIFICATION_TYPE":"U","NORAD_CAT_ID":58223,"ELEMENT_SET_NO":999,"REV_AT_EPOCH":10736,"BSTAR":6.3887521e-5,"MEAN_MOTION_DOT":6.6e-6,"MEAN_MOTION_DDOT":0},{"OBJECT_NAME":"STARLINK-30875","OBJECT_ID":"2023-170U","EPOCH":"2025-10-09T03:17:32.474688","MEAN_MOTION":15.02529556,"ECCENTRICITY":0.00012923,"INCLINATION":43.0042,"RA_OF_ASC_NODE":299.2612,"ARG_OF_PERICENTER":263.801,"MEAN_ANOMALY":96.2686,"EPHEMERIS_TYPE":0,"CLASSIFICATION_TYPE":"U","NORAD_CAT_ID":58224,"ELEMENT_SET_NO":999,"REV_AT_EPOCH":10748,"BSTAR":0.00013199794,"MEAN_MOTION_DOT":1.58e-5,"MEAN_MOTION_DDOT":0},{"OBJECT_NAME":"STARLINK-30872","OBJECT_ID":"2023-170V","EPOCH":"2025-10-09T03:49:01.741152","MEAN_MOTION":15.2754561,"ECCENTRICITY":0.00014519,"INCLINATION":42.9981,"RA_OF_ASC_NODE":188.0669,"ARG_OF_PERICENTER":257.6791,"MEAN_ANOMALY":102.3898,"EPHEMERIS_TYPE":0,"CLASSIFICATION_TYPE":"U","NORAD_CAT_ID":58225,"ELEMENT_SET_NO":999,"REV_AT_EPOCH":10879,"BSTAR":-0.00025606538,"MEAN_MOTION_DOT":-7.294e-5,"MEAN_MOTION_DDOT":0},{"OBJECT_NAME":"STARLINK-30865","OBJECT_ID":"2023-170W","EPOCH":"2025-10-09T06:45:55.589760","MEAN_MOTION":15.02537412,"ECCENTRICITY":6.682e-5,"INCLINATION":43.0022,"RA_OF_ASC_NODE":287.5937,"ARG_OF_PERICENTER":270.4074,"MEAN_ANOMALY":89.6692,"EPHEMERIS_TYPE":0,"CLASSIFICATION_TYPE":"U","NORAD_CAT_ID":58226,"ELEMENT_SET_NO":999,"REV_AT_EPOCH":10763,"BSTAR":-0.00012106678,"MEAN_MOTION_DOT":-1.838e-5,"MEAN_MOTION_DDOT":0},{"OBJECT_NAME":"STARLINK-30874","OBJECT_ID":"2023-170X","EPOCH":"2025-10-09T07:36:07.962912","MEAN_MOTION":15.02527199,"ECCENTRICITY":0.0001519,"INCLINATION":43.004,"RA_OF_ASC_NODE":298.8858,"ARG_OF_PERICENTER":270.1186,"MEAN_ANOMALY":89.9482,"EPHEMERIS_TYPE":0,"CLASSIFICATION_TYPE":"U","NORAD_CAT_ID":58227,"ELEMENT_SET_NO":999,"REV_AT_EPOCH":10750,"BSTAR":7.1469562e-5,"MEAN_MOTION_DOT":7.62e-6,"MEAN_MOTION_DDOT":0},{"OBJECT_NAME":"STARLINK-30871","OBJECT_ID":"2023-170Y","EPOCH":"2025-10-09T07:31:20.216352","MEAN_MOTION":15.02531104,"ECCENTRICITY":0.00010725,"INCLINATION":43.0042,"RA_OF_ASC_NODE":298.859,"ARG_OF_PERICENTER":247.2091,"MEAN_ANOMALY":112.8638,"EPHEMERIS_TYPE":0,"CLASSIFICATION_TYPE":"U","NORAD_CAT_ID":58228,"ELEMENT_SET_NO":999,"REV_AT_EPOCH":10750,"BSTAR":3.7983604e-5,"MEAN_MOTION_DOT":3.09e-6,"MEAN_MOTION_DDOT":0},{"OBJECT_NAME":"STARLINK-30861","OBJECT_ID":"2023-171A","EPOCH":"2025-10-09T07:28:29.764704","MEAN_MOTION":15.02530245,"ECCENTRICITY":0.00014178,"INCLINATION":43.0046,"RA_OF_ASC_NODE":28.6025,"ARG_OF_PERICENTER":279.1104,"MEAN_ANOMALY":80.9578,"EPHEMERIS_TYPE":0,"CLASSIFICATION_TYPE":"U","NORAD_CAT_ID":58230,"ELEMENT_SET_NO":999,"REV_AT_EPOCH":10695,"BSTAR":-0.00011403256,"MEAN_MOTION_DOT":-1.743e-5,"MEAN_MOTION_DDOT":0},{"OBJECT_NAME":"STARLINK-30867","OBJECT_ID":"2023-171B","EPOCH":"2025-10-09T07:33:16.616160","MEAN_MOTION":15.0253625,"ECCENTRICITY":0.00015335,"INCLINATION":43.0043,"RA_OF_ASC_NODE":28.624,"ARG_OF_PERICENTER":265.3695,"MEAN_ANOMALY":94.6973,"EPHEMERIS_TYPE":0,"CLASSIFICATION_TYPE":"U","NORAD_CAT_ID":58231,"ELEMENT_SET_NO":999,"REV_AT_EPOCH":10695,"BSTAR":1.236562e-6,"MEAN_MOTION_DOT":-1.87e-6,"MEAN_MOTION_DDOT":0},{"OBJECT_NAME":"STARLINK-30880","OBJECT_ID":"2023-171C","EPOCH":"2025-10-09T07:38:04.252992","MEAN_MOTION":15.02534992,"ECCENTRICITY":0.00013343,"INCLINATION":43.0064,"RA_OF_ASC_NODE":28.6511,"ARG_OF_PERICENTER":263.4212,"MEAN_ANOMALY":96.6478,"EPHEMERIS_TYPE":0,"CLASSIFICATION_TYPE":"U","NORAD_CAT_ID":58232,"ELEMENT_SET_NO":999,"REV_AT_EPOCH":10695,"BSTAR":-1.1090751e-5,"MEAN_MOTION_DOT":-3.53e-6,"MEAN_MOTION_DDOT":0},{"OBJECT_NAME":"STARLINK-30777","OBJECT_ID":"2023-171D","EPOCH":"2025-10-09T07:47:40.268832","MEAN_MOTION":15.02532278,"ECCENTRICITY":0.00013455,"INCLINATION":43.003,"RA_OF_ASC_NODE":28.6961,"ARG_OF_PERICENTER":266.7639,"MEAN_ANOMALY":93.3049,"EPHEMERIS_TYPE":0,"CLASSIFICATION_TYPE":"U","NORAD_CAT_ID":58233,"ELEMENT_SET_NO":999,"REV_AT_EPOCH":10695,"BSTAR":-8.7838873e-5,"MEAN_MOTION_DOT":-1.39e-5,"MEAN_MOTION_DDOT":0},{"OBJECT_NAME":"STARLINK-30860","OBJECT_ID":"2023-171E","EPOCH":"2025-10-09T07:42:52.418592","MEAN_MOTION":15.02521369,"ECCENTRICITY":9.592e-5,"INCLINATION":43.0086,"RA_OF_ASC_NODE":28.6764,"ARG_OF_PERICENTER":247.4612,"MEAN_ANOMALY":112.6129,"EPHEMERIS_TYPE":0,"CLASSIFICATION_TYPE":"U","NORAD_CAT_ID":58234,"ELEMENT_SET_NO":999,"REV_AT_EPOCH":10695,"BSTAR":0.00016582839,"MEAN_MOTION_DOT":2.036e-5,"MEAN_MOTION_DDOT":0},{"OBJECT_NAME":"STARLINK-30853","OBJECT_ID":"2023-171G","EPOCH":"2025-10-08T15:55:10.143840","MEAN_MOTION":15.02532279,"ECCENTRICITY":0.00014775,"INCLINATION":43.0039,"RA_OF_ASC_NODE":32.3285,"ARG_OF_PERICENTER":261.4007,"MEAN_ANOMALY":98.6668,"EPHEMERIS_TYPE":0,"CLASSIFICATION_TYPE":"U","NORAD_CAT_ID":58236,"ELEMENT_SET_NO":999,"REV_AT_EPOCH":10685,"BSTAR":0.00089961397,"MEAN_MOTION_DOT":0.00011968,"MEAN_MOTION_DDOT":0},{"OBJECT_NAME":"STARLINK-30866","OBJECT_ID":"2023-171H","EPOCH":"2025-10-09T07:09:18.511488","MEAN_MOTION":15.02535526,"ECCENTRICITY":0.00014517,"INCLINATION":43.0051,"RA_OF_ASC_NODE":28.4912,"ARG_OF_PERICENTER":273.5999,"MEAN_ANOMALY":86.4677,"EPHEMERIS_TYPE":0,"CLASSIFICATION_TYPE":"U","NORAD_CAT_ID":58237,"ELEMENT_SET_NO":999,"REV_AT_EPOCH":10695,"BSTAR":9.5198199e-5,"MEAN_MOTION_DOT":1.082e-5,"MEAN_MOTION_DDOT":0},{"OBJECT_NAME":"STARLINK-30817","OBJECT_ID":"2023-171J","EPOCH":"2025-10-09T06:21:31.676544","MEAN_MOTION":15.02534041,"ECCENTRICITY":8.474e-5,"INCLINATION":43.0014,"RA_OF_ASC_NODE":29.0938,"ARG_OF_PERICENTER":282.237,"MEAN_ANOMALY":77.8377,"EPHEMERIS_TYPE":0,"CLASSIFICATION_TYPE":"U","NORAD_CAT_ID":58238,"ELEMENT_SET_NO":999,"REV_AT_EPOCH":10694,"BSTAR":-2.1182659e-5,"MEAN_MOTION_DOT":-4.9e-6,"MEAN_MOTION_DDOT":0},{"OBJECT_NAME":"STARLINK-30847","OBJECT_ID":"2023-171K","EPOCH":"2025-10-09T06:26:18.475296","MEAN_MOTION":15.02541878,"ECCENTRICITY":0.00015949,"INCLINATION":43.007,"RA_OF_ASC_NODE":29.1284,"ARG_OF_PERICENTER":262.994,"MEAN_ANOMALY":97.0721,"EPHEMERIS_TYPE":0,"CLASSIFICATION_TYPE":"U","NORAD_CAT_ID":58239,"ELEMENT_SET_NO":999,"REV_AT_EPOCH":10694,"BSTAR":4.8145212e-5,"MEAN_MOTION_DOT":4.47e-6,"MEAN_MOTION_DDOT":0}]
